ONEWEB-0694             
1 56722U 23068N   24004.58334491 -.01086567  00000+0 -72528+0 0  9995
2 56722  87.2380  48.8107 0015333 139.2026 110.6715 14.04611797 34545
ONEWEB-0696             
1 56723U 23068P   24004.58558970 -.00000021  00000+0 -88801-4 0  9992
2 56723  87.8997  77.3090 0001818 115.0827 245.0492 13.15547400 31742
ONEWEB-0703             
1 56724U 23068Q   24004.59586222 -.00000049  00000+0 -16398-3 0  9996
2 56724  87.8996  77.3293 0002122 140.5808 219.5477 13.15548589 31634
ONEWEB-0721             
1 56725U 23068R   24004.57713064  .00001857  00000+0  22005-3 0  9999
2 56725  86.6759  44.8375 0012762 128.0690 232.1687 14.83933579 34090
